CCSDS_OMM_VERS = 2.0
CREATION_DATE  = 
ORIGINATOR     = 

OBJECT_NAME    = STARLINK-36746
OBJECT_ID      = 2026-026N
CENTER_NAME    = EARTH
REF_FRAME      = TEME
TIME_SYSTEM    = UTC
MEAN_ELEMENT_THEORY = SGP/SGP4

EPOCH          = 2026-03-12T15:02:55.592448
MEAN_MOTION    = 15.49219415
ECCENTRICITY   = .0001113
INCLINATION    = 97.2854
RA_OF_ASC_NODE = 125.9992
ARG_OF_PERICENTER = 68.5702
MEAN_ANOMALY   = 291.5668

EPHEMERIS_TYPE = 0
CLASSIFICATION_TYPE = U
NORAD_CAT_ID   = 67733
ELEMENT_SET_NO = 999
REV_AT_EPOCH   = 456
BSTAR          = .12202E-2
MEAN_MOTION_DOT = .66908E-3
MEAN_MOTION_DDOT = 0

CCSDS_OMM_VERS = 2.0
CREATION_DATE  = 
ORIGINATOR     = 

OBJECT_NAME    = STARLINK-36749
OBJECT_ID      = 2026-026P
CENTER_NAME    = EARTH
REF_FRAME      = TEME
TIME_SYSTEM    = UTC
MEAN_ELEMENT_THEORY = SGP/SGP4

EPOCH          = 2026-03-12T16:00:01.999584
MEAN_MOTION    = 15.44322425
ECCENTRICITY   = .0002034
INCLINATION    = 97.2858
RA_OF_ASC_NODE = 126.1996
ARG_OF_PERICENTER = 87.6515
MEAN_ANOMALY   = 145.2012

EPHEMERIS_TYPE = 0
CLASSIFICATION_TYPE = U
NORAD_CAT_ID   = 67734
ELEMENT_SET_NO = 999
REV_AT_EPOCH   = 579
BSTAR          = -.44756E-1
MEAN_MOTION_DOT = -.185408E-1
MEAN_MOTION_DDOT = 0

CCSDS_OMM_VERS = 2.0
CREATION_DATE  = 
ORIGINATOR     = 

OBJECT_NAME    = STARLINK-36691
OBJECT_ID      = 2026-026Q
CENTER_NAME    = EARTH
REF_FRAME      = TEME
TIME_SYSTEM    = UTC
MEAN_ELEMENT_THEORY = SGP/SGP4

EPOCH          = 2026-03-12T16:00:01.999584
MEAN_MOTION    = 15.37059435
ECCENTRICITY   = .0001392
INCLINATION    = 97.2851
RA_OF_ASC_NODE = 126.2706
ARG_OF_PERICENTER = 95.4730
MEAN_ANOMALY   = 295.9562

EPHEMERIS_TYPE = 0
CLASSIFICATION_TYPE = U
NORAD_CAT_ID   = 67735
ELEMENT_SET_NO = 999
REV_AT_EPOCH   = 593
BSTAR          = -.56785E-1
MEAN_MOTION_DOT = -.1848131E-1
MEAN_MOTION_DDOT = 0

CCSDS_OMM_VERS = 2.0
CREATION_DATE  = 
ORIGINATOR     = 

OBJECT_NAME    = STARLINK-36317
OBJECT_ID      = 2026-026R
CENTER_NAME    = EARTH
REF_FRAME      = TEME
TIME_SYSTEM    = UTC
MEAN_ELEMENT_THEORY = SGP/SGP4

EPOCH          = 2026-03-12T16:00:01.999584
MEAN_MOTION    = 15.37148594
ECCENTRICITY   = .0001531
INCLINATION    = 97.2847
RA_OF_ASC_NODE = 126.2646
ARG_OF_PERICENTER = 93.2538
MEAN_ANOMALY   = 282.8644

EPHEMERIS_TYPE = 0
CLASSIFICATION_TYPE = U
NORAD_CAT_ID   = 67736
ELEMENT_SET_NO = 999
REV_AT_EPOCH   = 579
BSTAR          = -.55665E-1
MEAN_MOTION_DOT = -.182005E-1
MEAN_MOTION_DDOT = 0

CCSDS_OMM_VERS = 2.0
CREATION_DATE  = 
ORIGINATOR     = 

OBJECT_NAME    = STARLINK-36330
OBJECT_ID      = 2026-026S
CENTER_NAME    = EARTH
REF_FRAME      = TEME
TIME_SYSTEM    = UTC
MEAN_ELEMENT_THEORY = SGP/SGP4

EPOCH          = 2026-03-12T16:00:01.999584
MEAN_MOTION    = 15.37477995
ECCENTRICITY   = .0001339
INCLINATION    = 97.2845
RA_OF_ASC_NODE = 126.2769
ARG_OF_PERICENTER = 82.9213
MEAN_ANOMALY   = 322.0347

EPHEMERIS_TYPE = 0
CLASSIFICATION_TYPE = U
NORAD_CAT_ID   = 67737
ELEMENT_SET_NO = 999
REV_AT_EPOCH   = 579
BSTAR          = -.54285E-1
MEAN_MOTION_DOT = -.1796485E-1
MEAN_MOTION_DDOT = 0

CCSDS_OMM_VERS = 2.0
CREATION_DATE  = 
ORIGINATOR     = 

OBJECT_NAME    = STARLINK-36327
OBJECT_ID      = 2026-026T
CENTER_NAME    = EARTH
REF_FRAME      = TEME
TIME_SYSTEM    = UTC
MEAN_ELEMENT_THEORY = SGP/SGP4

EPOCH          = 2026-03-12T16:00:01.999584
MEAN_MOTION    = 15.37451370
ECCENTRICITY   = .0001404
INCLINATION    = 97.2841
RA_OF_ASC_NODE = 126.2837
ARG_OF_PERICENTER = 83.4233
MEAN_ANOMALY   = 336.7308

EPHEMERIS_TYPE = 0
CLASSIFICATION_TYPE = U
NORAD_CAT_ID   = 67738
ELEMENT_SET_NO = 999
REV_AT_EPOCH   = 579
BSTAR          = -.56079E-1
MEAN_MOTION_DOT = -.1848522E-1
MEAN_MOTION_DDOT = 0

CCSDS_OMM_VERS = 2.0
CREATION_DATE  = 
ORIGINATOR     = 

OBJECT_NAME    = STARLINK-36329
OBJECT_ID      = 2026-026U
CENTER_NAME    = EARTH
REF_FRAME      = TEME
TIME_SYSTEM    = UTC
MEAN_ELEMENT_THEORY = SGP/SGP4

EPOCH          = 2026-03-12T16:00:01.999584
MEAN_MOTION    = 15.38484872
ECCENTRICITY   = .000177
INCLINATION    = 97.2848
RA_OF_ASC_NODE = 126.3205
ARG_OF_PERICENTER = 70.3201
MEAN_ANOMALY   = 75.8243

EPHEMERIS_TYPE = 0
CLASSIFICATION_TYPE = U
NORAD_CAT_ID   = 67739
ELEMENT_SET_NO = 999
REV_AT_EPOCH   = 579
BSTAR          = -.53953E-1
MEAN_MOTION_DOT = -.1840504E-1
MEAN_MOTION_DDOT = 0

CCSDS_OMM_VERS = 2.0
CREATION_DATE  = 
ORIGINATOR     = 

OBJECT_NAME    = STARLINK-36737
OBJECT_ID      = 2026-026V
CENTER_NAME    = EARTH
REF_FRAME      = TEME
TIME_SYSTEM    = UTC
MEAN_ELEMENT_THEORY = SGP/SGP4

EPOCH          = 2026-03-12T16:00:01.999584
MEAN_MOTION    = 15.37601056
ECCENTRICITY   = .0001292
INCLINATION    = 97.2842
RA_OF_ASC_NODE = 126.2904
ARG_OF_PERICENTER = 82.7568
MEAN_ANOMALY   = 351.8579

EPHEMERIS_TYPE = 0
CLASSIFICATION_TYPE = U
NORAD_CAT_ID   = 67740
ELEMENT_SET_NO = 999
REV_AT_EPOCH   = 579
BSTAR          = -.55524E-1
MEAN_MOTION_DOT = -.1840046E-1
MEAN_MOTION_DDOT = 0

CCSDS_OMM_VERS = 2.0
CREATION_DATE  = 
ORIGINATOR     = 

OBJECT_NAME    = STARLINK-36740
OBJECT_ID      = 2026-026W
CENTER_NAME    = EARTH
REF_FRAME      = TEME
TIME_SYSTEM    = UTC
MEAN_ELEMENT_THEORY = SGP/SGP4

EPOCH          = 2026-03-12T14:16:20.053920
MEAN_MOTION    = 15.46324206
ECCENTRICITY   = .0002445
INCLINATION    = 97.2857
RA_OF_ASC_NODE = 126.1973
ARG_OF_PERICENTER = 72.9515
MEAN_ANOMALY   = 287.2002

EPHEMERIS_TYPE = 0
CLASSIFICATION_TYPE = U
NORAD_CAT_ID   = 67741
ELEMENT_SET_NO = 999
REV_AT_EPOCH   = 457
BSTAR          = -.48926E-2
MEAN_MOTION_DOT = -.234035E-2
MEAN_MOTION_DDOT = 0

CCSDS_OMM_VERS = 2.0
CREATION_DATE  = 
ORIGINATOR     = 

OBJECT_NAME    = STARLINK-36693
OBJECT_ID      = 2026-026X
CENTER_NAME    = EARTH
REF_FRAME      = TEME
TIME_SYSTEM    = UTC
MEAN_ELEMENT_THEORY = SGP/SGP4

EPOCH          = 2026-03-12T16:00:01.999584
MEAN_MOTION    = 15.44165530
ECCENTRICITY   = .00013
INCLINATION    = 97.2855
RA_OF_ASC_NODE = 126.2677
ARG_OF_PERICENTER = 84.4474
MEAN_ANOMALY   = 306.2717

EPHEMERIS_TYPE = 0
CLASSIFICATION_TYPE = U
NORAD_CAT_ID   = 67742
ELEMENT_SET_NO = 999
REV_AT_EPOCH   = 593
BSTAR          = -.44763E-1
MEAN_MOTION_DOT = -.1845082E-1
MEAN_MOTION_DDOT = 0

CCSDS_OMM_VERS = 2.0
CREATION_DATE  = 
ORIGINATOR     = 

OBJECT_NAME    = STARLINK-36717
OBJECT_ID      = 2026-026Y
CENTER_NAME    = EARTH
REF_FRAME      = TEME
TIME_SYSTEM    = UTC
MEAN_ELEMENT_THEORY = SGP/SGP4

EPOCH          = 2026-03-12T16:00:01.999584
MEAN_MOTION    = 15.39915476
ECCENTRICITY   = .0001303
INCLINATION    = 97.2856
RA_OF_ASC_NODE = 126.2913
ARG_OF_PERICENTER = 78.4897
MEAN_ANOMALY   = 358.7946

EPHEMERIS_TYPE = 0
CLASSIFICATION_TYPE = U
NORAD_CAT_ID   = 67743
ELEMENT_SET_NO = 999
REV_AT_EPOCH   = 593
BSTAR          = -.52601E-1
MEAN_MOTION_DOT = -.1876605E-1
MEAN_MOTION_DDOT = 0

CCSDS_OMM_VERS = 2.0
CREATION_DATE  = 
ORIGINATOR     = 

OBJECT_NAME    = STARLINK-36692
OBJECT_ID      = 2026-026Z
CENTER_NAME    = EARTH
REF_FRAME      = TEME
TIME_SYSTEM    = UTC
MEAN_ELEMENT_THEORY = SGP/SGP4

EPOCH          = 2026-03-12T16:00:01.999584
MEAN_MOTION    = 15.41912646
ECCENTRICITY   = .0001584
INCLINATION    = 97.2853
RA_OF_ASC_NODE = 126.2761
ARG_OF_PERICENTER = 90.9574
MEAN_ANOMALY   = 319.5842

EPHEMERIS_TYPE = 0
CLASSIFICATION_TYPE = U
NORAD_CAT_ID   = 67744
ELEMENT_SET_NO = 999
REV_AT_EPOCH   = 579
BSTAR          = -.49104E-1
MEAN_MOTION_DOT = -.1872806E-1
MEAN_MOTION_DDOT = 0

