STARLINK-36746          
1 67733U 26026N   26071.62703232  .00066908  00000+0  12202-2 0  9990
2 67733  97.2854 125.9992 0001113  68.5702 291.5668 15.49219415  4567
STARLINK-36749          
1 67734U 26026P   26071.66668981 -.01854080  00000+0 -44756-1 0  9993
2 67734  97.2858 126.1996 0002034  87.6515 145.2012 15.44322425  5791
STARLINK-36691          
1 67735U 26026Q   26071.66668981 -.01848131  00000+0 -56785-1 0  9999
2 67735  97.2851 126.2706 0001392  95.4730 295.9562 15.37059435  5936
STARLINK-36317          
1 67736U 26026R   26071.66668981 -.01820050  00000+0 -55665-1 0  9996
2 67736  97.2847 126.2646 0001531  93.2538 282.8644 15.37148594  5797
STARLINK-36330          
1 67737U 26026S   26071.66668981 -.01796485  00000+0 -54285-1 0  9998
2 67737  97.2845 126.2769 0001339  82.9213 322.0347 15.37477995  5790
STARLINK-36327          
1 67738U 26026T   26071.66668981 -.01848522  00000+0 -56079-1 0  9992
2 67738  97.2841 126.2837 0001404  83.4233 336.7308 15.37451370  5792
STARLINK-36329          
1 67739U 26026U   26071.66668981 -.01840504  00000+0 -53953-1 0  9993
2 67739  97.2848 126.3205 0001770  70.3201  75.8243 15.38484872  5799
STARLINK-36737          
1 67740U 26026V   26071.66668981 -.01840046  00000+0 -55524-1 0  9992
2 67740  97.2842 126.2904 0001292  82.7568 351.8579 15.37601056  5795
STARLINK-36740          
1 67741U 26026W   26071.59467655 -.00234035  00000+0 -48926-2 0  9993
2 67741  97.2857 126.1973 0002445  72.9515 287.2002 15.46324206  4578
STARLINK-36693          
1 67742U 26026X   26071.66668981 -.01845082  00000+0 -44763-1 0  9992
2 67742  97.2855 126.2677 0001300  84.4474 306.2717 15.44165530  5937
STARLINK-36717          
1 67743U 26026Y   26071.66668981 -.01876605  00000+0 -52601-1 0  9998
2 67743  97.2856 126.2913 0001303  78.4897 358.7946 15.39915476  5939
STARLINK-36692          
1 67744U 26026Z   26071.66668981 -.01872806  00000+0 -49104-1 0  9992
2 67744  97.2853 126.2761 0001584  90.9574 319.5842 15.41912646  5793
